[
    {
        "OBJECT_NAME": "STARLINK-4391",
        "OBJECT_ID": "2022-084A",
        "EPOCH": "2025-12-12T05:32:41.425728",
        "MEAN_MOTION": 15.05642338,
        "ECCENTRICITY": 0.00014148,
        "INCLINATION": 97.6039,
        "RA_OF_ASC_NODE": 44.9612,
        "ARG_OF_PERICENTER": 90.5833,
        "MEAN_ANOMALY": 269.5556,
        "EPHEMERIS_TYPE": 0,
        "CLASSIFICATION_TYPE": "U",
        "NORAD_CAT_ID": 53189,
        "ELEMENT_SET_NO": 999,
        "REV_AT_EPOCH": 18689,
        "BSTAR": -6.3463563e-05,
        "MEAN_MOTION_DOT": -9.76e-06,
        "MEAN_MOTION_DDOT": 0.0
    },
    {
        "OBJECT_NAME": "STARLINK-4622",
        "OBJECT_ID": "2022-105A",
        "EPOCH": "2025-12-12T06:19:45.725952",
        "MEAN_MOTION": 15.01266013,
        "ECCENTRICITY": 0.00050839,
        "INCLINATION": 97.6002,
        "RA_OF_ASC_NODE": 224.6212,
        "ARG_OF_PERICENTER": 38.6407,
        "MEAN_ANOMALY": 321.518,
        "EPHEMERIS_TYPE": 0,
        "CLASSIFICATION_TYPE": "U",
        "NORAD_CAT_ID": 53648,
        "ELEMENT_SET_NO": 999,
        "REV_AT_EPOCH": 18012,
        "BSTAR": -0.0001495975,
        "MEAN_MOTION_DOT": -1.98e-05,
        "MEAN_MOTION_DDOT": 0.0
    },
    {
        "OBJECT_NAME": "STARLINK-5382",
        "OBJECT_ID": "2022-177A",
        "EPOCH": "2025-12-12T00:22:05.135808",
        "MEAN_MOTION": 15.02535365,
        "ECCENTRICITY": 0.00011869,
        "INCLINATION": 43.0034,
        "RA_OF_ASC_NODE": 250.005,
        "ARG_OF_PERICENTER": 271.9621,
        "MEAN_ANOMALY": 88.1085,
        "EPHEMERIS_TYPE": 0,
        "CLASSIFICATION_TYPE": "U",
        "NORAD_CAT_ID": 54820,
        "ELEMENT_SET_NO": 999,
        "REV_AT_EPOCH": 16376,
        "BSTAR": -2.5639022e-05,
        "MEAN_MOTION_DOT": -5.5e-06,
        "MEAN_MOTION_DDOT": 0.0
    },
    {
        "OBJECT_NAME": "STARLINK-5061",
        "OBJECT_ID": "2022-177AD",
        "EPOCH": "2025-12-12T02:43:07.709088",
        "MEAN_MOTION": 15.02540621,
        "ECCENTRICITY": 0.00012311,
        "INCLINATION": 43.0028,
        "RA_OF_ASC_NODE": 223.0079,
        "ARG_OF_PERICENTER": 274.2759,
        "MEAN_ANOMALY": 85.7942,
        "EPHEMERIS_TYPE": 0,
        "CLASSIFICATION_TYPE": "U",
        "NORAD_CAT_ID": 54847,
        "ELEMENT_SET_NO": 999,
        "REV_AT_EPOCH": 16408,
        "BSTAR": 8.4806068e-05,
        "MEAN_MOTION_DOT": 9.42e-06,
        "MEAN_MOTION_DDOT": 0.0
    },
    {
        "OBJECT_NAME": "STARLINK-5277",
        "OBJECT_ID": "2023-010A",
        "EPOCH": "2025-12-12T05:34:52.779648",
        "MEAN_MOTION": 14.98341439,
        "ECCENTRICITY": 0.00028806,
        "INCLINATION": 69.9994,
        "RA_OF_ASC_NODE": 265.0445,
        "ARG_OF_PERICENTER": 269.8884,
        "MEAN_ANOMALY": 90.1945,
        "EPHEMERIS_TYPE": 0,
        "CLASSIFICATION_TYPE": "U",
        "NORAD_CAT_ID": 55269,
        "ELEMENT_SET_NO": 999,
        "REV_AT_EPOCH": 15996,
        "BSTAR": 0.00035738002,
        "MEAN_MOTION_DOT": 4.175e-05,
        "MEAN_MOTION_DDOT": 0.0
    },
    {
        "OBJECT_NAME": "STARLINK-5236",
        "OBJECT_ID": "2023-010F",
        "EPOCH": "2025-12-12T03:46:23.970432",
        "MEAN_MOTION": 14.98339053,
        "ECCENTRICITY": 0.00027216,
        "INCLINATION": 70.0002,
        "RA_OF_ASC_NODE": 245.3136,
        "ARG_OF_PERICENTER": 268.2177,
        "MEAN_ANOMALY": 91.867,
        "EPHEMERIS_TYPE": 0,
        "CLASSIFICATION_TYPE": "U",
        "NORAD_CAT_ID": 55274,
        "ELEMENT_SET_NO": 999,
        "REV_AT_EPOCH": 16016,
        "BSTAR": 3.1413067e-05,
        "MEAN_MOTION_DOT": 2.82e-06,
        "MEAN_MOTION_DDOT": 0.0
    },
    {
        "OBJECT_NAME": "STARLINK-5332",
        "OBJECT_ID": "2023-010S",
        "EPOCH": "2025-12-12T02:22:10.128576",
        "MEAN_MOTION": 14.98330694,
        "ECCENTRICITY": 0.00023094,
        "INCLINATION": 69.999,
        "RA_OF_ASC_NODE": 225.2219,
        "ARG_OF_PERICENTER": 275.5215,
        "MEAN_ANOMALY": 84.568,
        "EPHEMERIS_TYPE": 0,
        "CLASSIFICATION_TYPE": "U",
        "NORAD_CAT_ID": 55285,
        "ELEMENT_SET_NO": 999,
        "REV_AT_EPOCH": 16152,
        "BSTAR": 1.2261449e-05,
        "MEAN_MOTION_DOT": 5.3e-07,
        "MEAN_MOTION_DDOT": 0.0
    },
    {
        "OBJECT_NAME": "STARLINK-5492",
        "OBJECT_ID": "2023-013A",
        "EPOCH": "2025-12-12T04:44:55.975776",
        "MEAN_MOTION": 15.02536698,
        "ECCENTRICITY": 0.00012325,
        "INCLINATION": 43.0077,
        "RA_OF_ASC_NODE": 56.1483,
        "ARG_OF_PERICENTER": 262.214,
        "MEAN_ANOMALY": 97.8563,
        "EPHEMERIS_TYPE": 0,
        "CLASSIFICATION_TYPE": "U",
        "NORAD_CAT_ID": 55331,
        "ELEMENT_SET_NO": 999,
        "REV_AT_EPOCH": 15962,
        "BSTAR": 4.6403256e-05,
        "MEAN_MOTION_DOT": 4.23e-06,
        "MEAN_MOTION_DDOT": 0.0
    },
    {
        "OBJECT_NAME": "STARLINK-5664",
        "OBJECT_ID": "2023-013AF",
        "EPOCH": "2025-12-11T12:35:54.779712",
        "MEAN_MOTION": 15.02540727,
        "ECCENTRICITY": 0.0001237,
        "INCLINATION": 43.0033,
        "RA_OF_ASC_NODE": 71.8222,
        "ARG_OF_PERICENTER": 263.965,
        "MEAN_ANOMALY": 96.1052,
        "EPHEMERIS_TYPE": 0,
        "CLASSIFICATION_TYPE": "U",
        "NORAD_CAT_ID": 55360,
        "ELEMENT_SET_NO": 999,
        "REV_AT_EPOCH": 15830,
        "BSTAR": 0.00017081674,
        "MEAN_MOTION_DOT": 2.105e-05,
        "MEAN_MOTION_DDOT": 0.0
    },
    {
        "OBJECT_NAME": "STARLINK-4786",
        "OBJECT_ID": "2023-014C",
        "EPOCH": "2025-12-12T06:29:16.443744",
        "MEAN_MOTION": 14.98323365,
        "ECCENTRICITY": 0.00024333,
        "INCLINATION": 70.001,
        "RA_OF_ASC_NODE": 284.7692,
        "ARG_OF_PERICENTER": 264.9734,
        "MEAN_ANOMALY": 95.1147,
        "EPHEMERIS_TYPE": 0,
        "CLASSIFICATION_TYPE": "U",
        "NORAD_CAT_ID": 55393,
        "ELEMENT_SET_NO": 999,
        "REV_AT_EPOCH": 15896,
        "BSTAR": 0.00033669615,
        "MEAN_MOTION_DOT": 3.926e-05,
        "MEAN_MOTION_DDOT": 0.0
    },
    {
        "OBJECT_NAME": "STARLINK-5633",
        "OBJECT_ID": "2023-014V",
        "EPOCH": "2025-12-12T06:47:37.485600",
        "MEAN_MOTION": 14.98326941,
        "ECCENTRICITY": 0.0002254,
        "INCLINATION": 70.0007,
        "RA_OF_ASC_NODE": 304.6708,
        "ARG_OF_PERICENTER": 283.8007,
        "MEAN_ANOMALY": 76.2901,
        "EPHEMERIS_TYPE": 0,
        "CLASSIFICATION_TYPE": "U",
        "NORAD_CAT_ID": 55410,
        "ELEMENT_SET_NO": 999,
        "REV_AT_EPOCH": 15847,
        "BSTAR": -6.4617921e-05,
        "MEAN_MOTION_DOT": -8.64e-06,
        "MEAN_MOTION_DDOT": 0.0
    },
    {
        "OBJECT_NAME": "STARLINK-5642",
        "OBJECT_ID": "2023-014AR",
        "EPOCH": "2025-12-12T06:05:54.272832",
        "MEAN_MOTION": 14.98335802,
        "ECCENTRICITY": 0.00029108,
        "INCLINATION": 69.9998,
        "RA_OF_ASC_NODE": 324.8312,
        "ARG_OF_PERICENTER": 270.5469,
        "MEAN_ANOMALY": 89.5357,
        "EPHEMERIS_TYPE": 0,
        "CLASSIFICATION_TYPE": "U",
        "NORAD_CAT_ID": 55430,
        "ELEMENT_SET_NO": 999,
        "REV_AT_EPOCH": 15797,
        "BSTAR": 0.0001658015,
        "MEAN_MOTION_DOT": 1.886e-05,
        "MEAN_MOTION_DDOT": 0.0
    }
]