STARLINK-4391           
1 53189U 22084A   25346.23103502 -.00000976  00000+0 -63464-4 0  9998
2 53189  97.6039  44.9612 0001414  90.5833 269.5556 15.05642338186893
STARLINK-4622           
1 53648U 22105A   25346.26372368 -.00001980  00000+0 -14960-3 0  9995
2 53648  97.6002 224.6212 0005083  38.6407 321.5180 15.01266013180122
STARLINK-5382           
1 54820U 22177A   25346.01533722 -.00000550  00000+0 -25639-4 0  9991
2 54820  43.0034 250.0050 0001186 271.9621  88.1085 15.02535365163769
STARLINK-5061           
1 54847U 22177AD  25346.11328367  .00000942  00000+0  84806-4 0  9992
2 54847  43.0028 223.0079 0001231 274.2759  85.7942 15.02540621164083
STARLINK-5277           
1 55269U 23010A   25346.23255532  .00004175  00000+0  35738-3 0  9995
2 55269  69.9994 265.0445 0002880 269.8884  90.1945 14.98341439159968
STARLINK-5236           
1 55274U 23010F   25346.15722188  .00000282  00000+0  31413-4 0  9990
2 55274  70.0002 245.3136 0002721 268.2177  91.8670 14.98339053160163
STARLINK-5332           
1 55285U 23010S   25346.09872834  .00000053  00000+0  12261-4 0  9995
2 55285  69.9990 225.2219 0002309 275.5215  84.5680 14.98330694161526
STARLINK-5492           
1 55331U 23013A   25346.19787009  .00000423  00000+0  46403-4 0  9996
2 55331  43.0077  56.1483 0001232 262.2140  97.8563 15.02536698159628
STARLINK-5664           
1 55360U 23013AF  25345.52493958  .00002105  00000+0  17082-3 0  9990
2 55360  43.0033  71.8222 0001237 263.9650  96.1052 15.02540727158303
STARLINK-4786           
1 55393U 23014C   25346.27032921  .00003926  00000+0  33670-3 0  9992
2 55393  70.0010 284.7692 0002433 264.9734  95.1147 14.98323365158960
STARLINK-5633           
1 55410U 23014V   25346.28307275 -.00000864  00000+0 -64618-4 0  9997
2 55410  70.0007 304.6708 0002254 283.8007  76.2901 14.98326941158477
STARLINK-5642           
1 55430U 23014AR  25346.25410038  .00001886  00000+0  16580-3 0  9995
2 55430  69.9998 324.8312 0002910 270.5469  89.5357 14.98335802157976
